{
 "type": "FeatureCollection",
 "features": [
  {
   "type": "Feature",
   "properties": {
    "name": "Gulf Run Pipeline",
    "segment": "new-build 42-inch mainline, Westdale CS (Red River Par.) to GPPL Meter Station near Starks (Calcasieu Par.)",
    "accuracy_km": 0.5,
    "length_km": 215.5,
    "certificated_miles": 134.0,
    "in_service": "2022-12",
    "operator": "Gulf Run Transmission, LLC (Energy Transfer); certificated as Enable Gulf Run Transmission, LLC",
    "method": "manual_ferc_trace",
    "traced": "2026-10-01",
    "sources": [
     "FERC docket CP20-70-000 (Gulf Run) / CP20-68-000 (EGT Line CP mods); pre-filing PF19-3-000",
     "Accession 20200228-5231: Resource Report 1 text (Tables 1.4-1/1.4-2) and Fig. 1.A-1 USGS topographic route maps pp.1-44 of 48 (vector route + milepost markers, NAD83 UTM 15N ft, 1:24,000)",
     "Final EA CP20-68/-70, Oct 29 2020 (https://cms.ferc.gov/sites/default/files/2020-10/CP20-68_-70%20Enable%20Gulf%20Run%20Final%20EA_10292020.pdf): Table A-1 HDDs, Table B-5, sec. 7.5 (I-49 MP 17.9), Figs 1 and 5",
     "Absolute position: EPA FRS 110063950087 (Westdale CS 32.19764,-93.48147); checked against Census 2023 county lines (5 parish-line crossings within 0.25 mi of RR1 mileposts) and TIGER I-49 (0.2 mi)"
    ],
    "method_note": "Topo-map pages chained by milepost arc length (overlap spread <7 ft), placed by one translation; not survey-grade"
   },
   "geometry": {
    "type": "LineString",
    "coordinates": [
     [
      -93.48147,
      32.19764
     ],
     [
      -93.481906,
      32.197625
     ],
     [
      -93.481866,
      32.196154
     ],
     [
      -93.480599,
      32.188817
     ],
     [
      -93.480612,
      32.182122
     ],
     [
      -93.48124,
      32.181597
     ],
     [
      -93.481108,
      32.165663
     ],
     [
      -93.481846,
      32.164657
     ],
     [
      -93.481856,
      32.163557
     ],
     [
      -93.481124,
      32.162542
     ],
     [
      -93.481092,
      32.15949
     ],
     [
      -93.480572,
      32.159052
     ],
     [
      -93.48058,
      32.13942
     ],
     [
      -93.481593,
      32.138508
     ],
     [
      -93.482267,
      32.134533
     ],
     [
      -93.484955,
      32.13246
     ],
     [
      -93.485603,
      32.129749
     ],
     [
      -93.485677,
      32.125501
     ],
     [
      -93.486929,
      32.123901
     ],
     [
      -93.488525,
      32.120197
     ],
     [
      -93.487995,
      32.117848
     ],
     [
      -93.488926,
      32.116648
     ],
     [
      -93.489322,
      32.115107
     ],
     [
      -93.48932,
      32.111807
     ],
     [
      -93.489867,
      32.111351
     ],
     [
      -93.489718,
      32.107047
     ],
     [
      -93.489231,
      32.10665
     ],
     [
      -93.489102,
      32.09447
     ],
     [
      -93.485515,
      32.091156
     ],
     [
      -93.481014,
      32.089149
     ],
     [
      -93.473471,
      32.085785
     ],
     [
      -93.47167,
      32.084018
     ],
     [
      -93.468334,
      32.079068
     ],
     [
      -93.467426,
      32.078315
     ],
     [
      -93.467439,
      32.077737
     ],
     [
      -93.463854,
      32.074588
     ],
     [
      -93.463575,
      32.049134
     ],
     [
      -93.463122,
      32.04875
     ],
     [
      -93.463054,
      32.045039
     ],
     [
      -93.461737,
      32.043077
     ],
     [
      -93.461389,
      32.034775
     ],
     [
      -93.464469,
      32.027958
     ],
     [
      -93.464332,
      32.025739
     ],
     [
      -93.463697,
      32.015628
     ],
     [
      -93.459491,
      32.007037
     ],
     [
      -93.459461,
      32.001124
     ],
     [
      -93.450782,
      31.99138
     ],
     [
      -93.44977,
      31.98693
     ],
     [
      -93.449727,
      31.986737
     ],
     [
      -93.447843,
      31.970878
     ],
     [
      -93.4426,
      31.967294
     ],
     [
      -93.442596,
      31.958699
     ],
     [
      -93.442596,
      31.951389
     ],
     [
      -93.439907,
      31.948869
     ],
     [
      -93.439894,
      31.946105
     ],
     [
      -93.442614,
      31.945023
     ],
     [
      -93.442722,
      31.937393
     ],
     [
      -93.443511,
      31.933774
     ],
     [
      -93.444342,
      31.925604
     ],
     [
      -93.445418,
      31.921311
     ],
     [
      -93.447284,
      31.917152
     ],
     [
      -93.447679,
      31.912229
     ],
     [
      -93.450136,
      31.902378
     ],
     [
      -93.449714,
      31.901815
     ],
     [
      -93.451943,
      31.892871
     ],
     [
      -93.452554,
      31.892649
     ],
     [
      -93.453962,
      31.887185
     ],
     [
      -93.453969,
      31.885426
     ],
     [
      -93.454609,
      31.88442
     ],
     [
      -93.452859,
      31.882419
     ],
     [
      -93.451681,
      31.87559
     ],
     [
      -93.453241,
      31.871679
     ],
     [
      -93.452817,
      31.865666
     ],
     [
      -93.449004,
      31.863479
     ],
     [
      -93.446705,
      31.851141
     ],
     [
      -93.446742,
      31.845049
     ],
     [
      -93.446706,
      31.834656
     ],
     [
      -93.446232,
      31.833187
     ],
     [
      -93.446753,
      31.831081
     ],
     [
      -93.44677,
      31.827809
     ],
     [
      -93.447427,
      31.827229
     ],
     [
      -93.447444,
      31.805325
     ],
     [
      -93.44753,
      31.802973
     ],
     [
      -93.448133,
      31.801197
     ],
     [
      -93.447443,
      31.798409
     ],
     [
      -93.44797,
      31.74935
     ],
     [
      -93.447644,
      31.745131
     ],
     [
      -93.448407,
      31.743231
     ],
     [
      -93.448401,
      31.741952
     ],
     [
      -93.447733,
      31.740318
     ],
     [
      -93.447754,
      31.737871
     ],
     [
      -93.448611,
      31.735434
     ],
     [
      -93.448628,
      31.732409
     ],
     [
      -93.447807,
      31.728879
     ],
     [
      -93.449352,
      31.722287
     ],
     [
      -93.449339,
      31.719675
     ],
     [
      -93.448742,
      31.718534
     ],
     [
      -93.447748,
      31.716587
     ],
     [
      -93.447824,
      31.699265
     ],
     [
      -93.448405,
      31.696169
     ],
     [
      -93.447858,
      31.692857
     ],
     [
      -93.447933,
      31.675052
     ],
     [
      -93.448524,
      31.670815
     ],
     [
      -93.447965,
      31.668063
     ],
     [
      -93.447988,
      31.662962
     ],
     [
      -93.449424,
      31.653868
     ],
     [
      -93.449257,
      31.646046
     ],
     [
      -93.450489,
      31.644873
     ],
     [
      -93.451417,
      31.640566
     ],
     [
      -93.450976,
      31.629073
     ],
     [
      -93.445944,
      31.62531
     ],
     [
      -93.439823,
      31.608212
     ],
     [
      -93.438855,
      31.607322
     ],
     [
      -93.437863,
      31.604809
     ],
     [
      -93.437171,
      31.604523
     ],
     [
      -93.436233,
      31.60311
     ],
     [
      -93.433299,
      31.597592
     ],
     [
      -93.432779,
      31.596205
     ],
     [
      -93.433124,
      31.594321
     ],
     [
      -93.430474,
      31.587592
     ],
     [
      -93.429455,
      31.586014
     ],
     [
      -93.427343,
      31.580852
     ],
     [
      -93.425599,
      31.578685
     ],
     [
      -93.422451,
      31.571468
     ],
     [
      -93.422377,
      31.569241
     ],
     [
      -93.422354,
      31.569162
     ],
     [
      -93.420885,
      31.565974
     ],
     [
      -93.421187,
      31.565368
     ],
     [
      -93.420231,
      31.563281
     ],
     [
      -93.418918,
      31.557029
     ],
     [
      -93.419361,
      31.555653
     ],
     [
      -93.418837,
      31.55318
     ],
     [
      -93.417868,
      31.552028
     ],
     [
      -93.413359,
      31.530758
     ],
     [
      -93.413105,
      31.52783
     ],
     [
      -93.411769,
      31.523297
     ],
     [
      -93.411552,
      31.514415
     ],
     [
      -93.410987,
      31.513701
     ],
     [
      -93.410968,
      31.509467
     ],
     [
      -93.409475,
      31.505676
     ],
     [
      -93.409727,
      31.504466
     ],
     [
      -93.41043,
      31.5039
     ],
     [
      -93.411889,
      31.503551
     ],
     [
      -93.415862,
      31.498272
     ],
     [
      -93.415731,
      31.497599
     ],
     [
      -93.419678,
      31.490354
     ],
     [
      -93.419589,
      31.488429
     ],
     [
      -93.420035,
      31.487699
     ],
     [
      -93.421635,
      31.486649
     ],
     [
      -93.423586,
      31.481651
     ],
     [
      -93.424387,
      31.481263
     ],
     [
      -93.425226,
      31.478799
     ],
     [
      -93.427037,
      31.476054
     ],
     [
      -93.42762,
      31.473646
     ],
     [
      -93.427965,
      31.468392
     ],
     [
      -93.431127,
      31.458262
     ],
     [
      -93.435114,
      31.449806
     ],
     [
      -93.435537,
      31.447591
     ],
     [
      -93.439899,
      31.437044
     ],
     [
      -93.440744,
      31.435982
     ],
     [
      -93.441228,
      31.433258
     ],
     [
      -93.448142,
      31.413602
     ],
     [
      -93.452304,
      31.40905
     ],
     [
      -93.454354,
      31.401961
     ],
     [
      -93.458231,
      31.394742
     ],
     [
      -93.457874,
      31.393933
     ],
     [
      -93.462134,
      31.383192
     ],
     [
      -93.463253,
      31.379393
     ],
     [
      -93.467276,
      31.369054
     ],
     [
      -93.468124,
      31.368693
     ],
     [
      -93.468836,
      31.366862
     ],
     [
      -93.47063,
      31.360242
     ],
     [
      -93.47406,
      31.351475
     ],
     [
      -93.479362,
      31.337879
     ],
     [
      -93.478762,
      31.336507
     ],
     [
      -93.480535,
      31.332403
     ],
     [
      -93.485081,
      31.31737
     ],
     [
      -93.4855,
      31.314894
     ],
     [
      -93.486876,
      31.311465
     ],
     [
      -93.487643,
      31.311077
     ],
     [
      -93.488762,
      31.307393
     ],
     [
      -93.490262,
      31.303504
     ],
     [
      -93.485109,
      31.294738
     ],
     [
      -93.484685,
      31.293227
     ],
     [
      -93.484342,
      31.282668
     ],
     [
      -93.483647,
      31.276783
     ],
     [
      -93.483586,
      31.275617
     ],
     [
      -93.483725,
      31.268028
     ],
     [
      -93.482959,
      31.252878
     ],
     [
      -93.482427,
      31.248892
     ],
     [
      -93.482745,
      31.235925
     ],
     [
      -93.483787,
      31.233033
     ],
     [
      -93.481995,
      31.204869
     ],
     [
      -93.481887,
      31.195714
     ],
     [
      -93.481855,
      31.193058
     ],
     [
      -93.48133,
      31.190379
     ],
     [
      -93.480891,
      31.181462
     ],
     [
      -93.479542,
      31.177177
     ],
     [
      -93.479396,
      31.16736
     ],
     [
      -93.478036,
      31.164051
     ],
     [
      -93.474923,
      31.158576
     ],
     [
      -93.478686,
      31.150064
     ],
     [
      -93.477289,
      31.142617
     ],
     [
      -93.474676,
      31.141169
     ],
     [
      -93.472358,
      31.13785
     ],
     [
      -93.472951,
      31.131811
     ],
     [
      -93.473032,
      31.119202
     ],
     [
      -93.47344,
      31.11766
     ],
     [
      -93.472953,
      31.10321
     ],
     [
      -93.468558,
      31.090026
     ],
     [
      -93.469306,
      31.088291
     ],
     [
      -93.465056,
      31.078571
     ],
     [
      -93.465042,
      31.077378
     ],
     [
      -93.465057,
      31.068835
     ],
     [
      -93.454597,
      31.021088
     ],
     [
      -93.450042,
      31.013349
     ],
     [
      -93.446555,
      31.008479
     ],
     [
      -93.4461,
      31.006858
     ],
     [
      -93.443927,
      31.003204
     ],
     [
      -93.445545,
      30.994068
     ],
     [
      -93.447278,
      30.989167
     ],
     [
      -93.450341,
      30.954903
     ],
     [
      -93.449928,
      30.951825
     ],
     [
      -93.451166,
      30.937258
     ],
     [
      -93.454605,
      30.90881
     ],
     [
      -93.454361,
      30.907779
     ],
     [
      -93.457425,
      30.874286
     ],
     [
      -93.458214,
      30.869126
     ],
     [
      -93.456353,
      30.865424
     ],
     [
      -93.451538,
      30.856456
     ],
     [
      -93.44921,
      30.854017
     ],
     [
      -93.44899,
      30.853468
     ],
     [
      -93.447922,
      30.849992
     ],
     [
      -93.44795,
      30.842429
     ],
     [
      -93.450742,
      30.839614
     ],
     [
      -93.450861,
      30.837744
     ],
     [
      -93.451794,
      30.836269
     ],
     [
      -93.451748,
      30.82971
     ],
     [
      -93.453654,
      30.825152
     ],
     [
      -93.45374,
      30.812968
     ],
     [
      -93.456487,
      30.810923
     ],
     [
      -93.462017,
      30.805138
     ],
     [
      -93.463275,
      30.801682
     ],
     [
      -93.468159,
      30.796989
     ],
     [
      -93.46832,
      30.771081
     ],
     [
      -93.468746,
      30.770227
     ],
     [
      -93.468606,
      30.752328
     ],
     [
      -93.470005,
      30.748583
     ],
     [
      -93.470058,
      30.739768
     ],
     [
      -93.488121,
      30.719556
     ],
     [
      -93.491976,
      30.71389
     ],
     [
      -93.492706,
      30.713245
     ],
     [
      -93.493244,
      30.712702
     ],
     [
      -93.496674,
      30.702214
     ],
     [
      -93.511074,
      30.663375
     ],
     [
      -93.524148,
      30.633572
     ],
     [
      -93.525078,
      30.629017
     ],
     [
      -93.544692,
      30.594452
     ],
     [
      -93.564475,
      30.562457
     ],
     [
      -93.585013,
      30.537009
     ],
     [
      -93.58755,
      30.513635
     ],
     [
      -93.58846,
      30.509079
     ],
     [
      -93.587941,
      30.508457
     ],
     [
      -93.582746,
      30.504429
     ],
     [
      -93.581971,
      30.502273
     ],
     [
      -93.581301,
      30.501795
     ],
     [
      -93.574938,
      30.479587
     ],
     [
      -93.574526,
      30.478428
     ],
     [
      -93.574397,
      30.472625
     ],
     [
      -93.573738,
      30.471363
     ],
     [
      -93.573596,
      30.466
     ],
     [
      -93.5745,
      30.4442
     ],
     [
      -93.579948,
      30.431792
     ],
     [
      -93.583468,
      30.4286
     ],
     [
      -93.584827,
      30.424991
     ],
     [
      -93.587901,
      30.413604
     ],
     [
      -93.590229,
      30.402696
     ],
     [
      -93.592083,
      30.394072
     ],
     [
      -93.602694,
      30.383822
     ],
     [
      -93.602765,
      30.380243
     ],
     [
      -93.602893,
      30.361928
     ],
     [
      -93.602418,
      30.359455
     ]
    ]
   }
  },
  {
   "type": "Feature",
   "properties": {
    "name": "Gulf Run - Line CP",
    "segment": "existing 42-inch Line CP, Carthage area (Panola Co. TX) to Perryville/Delhi (Richland Par.); built 2007 by CenterPoint (CP06-85), sold by EGT to Gulf Run at Gulf Run in-service",
    "accuracy_km": 2.5,
    "length_km": 269.1,
    "certificated_miles": 172.0,
    "operator": "Gulf Run Transmission, LLC (Energy Transfer); certificated as Enable Gulf Run Transmission, LLC",
    "method": "manual_ferc_trace",
    "traced": "2026-10-01",
    "sources": [
     "FERC CP20-68-000 abandonment-by-sale of Line CP assets to Gulf Run; RR1 (accession 20200228-5231) sec. 1.4.2-1.4.3 and Table 1.4-3 (Line CP MPs: Westdale 49.4, Vernon 101.3, ANR 164.4, CGT/EGT 171.9)",
     "FERC EA for CP20-68/CP20-70 (Oct 2020, cms.ferc.gov), Figure 1 Project Location Map p.4 (PDF p.16), georeferenced (Web Mercator affine, 10 GCPs, RMS ~1 km)",
     "EPA FRS 110063950087 (Westdale CS), 110071161362 (Vernon CS)"
    ],
    "method_note": "Digitized from small-scale EA Figure 1; generalized, so traced length is ~10% short of the 172 certificated miles"
   },
   "geometry": {
    "type": "LineString",
    "coordinates": [
     [
      -94.245986,
      32.170301
     ],
     [
      -94.227684,
      32.194323
     ],
     [
      -94.20688,
      32.212402
     ],
     [
      -94.194166,
      32.219475
     ],
     [
      -94.173161,
      32.209738
     ],
     [
      -94.145307,
      32.212979
     ],
     [
      -94.117425,
      32.213241
     ],
     [
      -94.089544,
      32.213503
     ],
     [
      -94.06169,
      32.216744
     ],
     [
      -94.033827,
      32.218992
     ],
     [
      -94.005926,
      32.217267
     ],
     [
      -93.978026,
      32.215542
     ],
     [
      -93.950144,
      32.215804
     ],
     [
      -93.922253,
      32.215072
     ],
     [
      -93.894362,
      32.21434
     ],
     [
      -93.866461,
      32.212615
     ],
     [
      -93.838552,
      32.209897
     ],
     [
      -93.810651,
      32.208172
     ],
     [
      -93.782816,
      32.2134
     ],
     [
      -93.754989,
      32.219456
     ],
     [
      -93.727358,
      32.235068
     ],
     [
      -93.699663,
      32.231906
     ],
     [
      -93.671977,
      32.229739
     ],
     [
      -93.64431,
      32.229559
     ],
     [
      -93.616626,
      32.227392
     ],
     [
      -93.588895,
      32.219209
     ],
     [
      -93.561145,
      32.207985
     ],
     [
      -93.533463,
      32.205818
     ],
     [
      -93.48147,
      32.19764
     ],
     [
      -93.428807,
      32.194875
     ],
     [
      -93.400783,
      32.204598
     ],
     [
      -93.372771,
      32.216348
     ],
     [
      -93.344753,
      32.227082
     ],
     [
      -93.316732,
      32.237815
     ],
     [
      -93.288718,
      32.249561
     ],
     [
      -93.260689,
      32.259278
     ],
     [
      -93.232631,
      32.264964
     ],
     [
      -93.204784,
      32.27344
     ],
     [
      -93.177005,
      32.284621
     ],
     [
      -93.149207,
      32.293814
     ],
     [
      -93.121316,
      32.293083
     ],
     [
      -93.093434,
      32.293345
     ],
     [
      -93.065553,
      32.293606
     ],
     [
      -93.037661,
      32.292875
     ],
     [
      -93.009761,
      32.291151
     ],
     [
      -92.981851,
      32.288435
     ],
     [
      -92.95396,
      32.287704
     ],
     [
      -92.926069,
      32.286973
     ],
     [
      -92.898168,
      32.285249
     ],
     [
      -92.870268,
      32.283473
     ],
     [
      -92.842377,
      32.282668
     ],
     [
      -92.814485,
      32.281863
     ],
     [
      -92.786594,
      32.281058
     ],
     [
      -92.758713,
      32.281246
     ],
     [
      -92.730887,
      32.287387
     ],
     [
      -92.702986,
      32.285589
     ],
     [
      -92.675151,
      32.290737
     ],
     [
      -92.626216,
      32.290578
     ],
     [
      -92.577557,
      32.290658
     ],
     [
      -92.549675,
      32.290994
     ],
     [
      -92.521812,
      32.293314
     ],
     [
      -92.50105,
      32.309462
     ],
     [
      -92.473253,
      32.318732
     ],
     [
      -92.445371,
      32.319067
     ],
     [
      -92.417488,
      32.319402
     ],
     [
      -92.389597,
      32.318745
     ],
     [
      -92.361715,
      32.319058
     ],
     [
      -92.333834,
      32.319319
     ],
     [
      -92.305952,
      32.31958
     ],
     [
      -92.27807,
      32.319842
     ],
     [
      -92.250179,
      32.319111
     ],
     [
      -92.222297,
      32.319372
     ],
     [
      -92.194415,
      32.319633
     ],
     [
      -92.166533,
      32.319894
     ],
     [
      -92.138698,
      32.325116
     ],
     [
      -92.110817,
      32.325378
     ],
     [
      -92.082869,
      32.318694
     ],
     [
      -92.055025,
      32.322924
     ],
     [
      -92.027134,
      32.322193
     ],
     [
      -91.999308,
      32.328407
     ],
     [
      -91.971511,
      32.337596
     ],
     [
      -91.943657,
      32.340833
     ],
     [
      -91.915794,
      32.343078
     ],
     [
      -91.88794,
      32.346315
     ],
     [
      -91.860105,
      32.351535
     ],
     [
      -91.832251,
      32.354772
     ],
     [
      -91.804388,
      32.357017
     ],
     [
      -91.776553,
      32.362236
     ],
     [
      -91.748775,
      32.373405
     ],
     [
      -91.720986,
      32.383582
     ],
     [
      -91.700122,
      32.388735
     ],
     [
      -91.623422,
      32.43604
     ],
     [
      -91.502386,
      32.414378
     ]
    ]
   }
  },
  {
   "type": "Feature",
   "properties": {
    "name": "Gulf Run - Line CP west lateral (CP-3)",
    "segment": "lateral shown as \"Existing Line CP\" in EA Fig. 1 from the Line CP west end north past the CP-3 Meter Station toward I-20 (Harrison Co. TX); ownership of the part north of CP-3 uncertain",
    "accuracy_km": 3.0,
    "length_km": 28.3,
    "operator": "Gulf Run Transmission, LLC (Energy Transfer); certificated as Enable Gulf Run Transmission, LLC",
    "method": "manual_ferc_trace",
    "traced": "2026-10-01",
    "sources": [
     "FERC EA for CP20-68/CP20-70 (Oct 2020, cms.ferc.gov), Figure 1 Project Location Map p.4 (PDF p.16), georeferenced (Web Mercator affine, 10 GCPs, RMS ~1 km)",
     "RR1 sec. 1.4.2 (CP-3 Meter Station on Line ST-1, Panola Co.)"
    ]
   },
   "geometry": {
    "type": "LineString",
    "coordinates": [
     [
      -94.196702,
      32.238077
     ],
     [
      -94.187347,
      32.262428
     ],
     [
      -94.182602,
      32.286711
     ],
     [
      -94.17095,
      32.311085
     ],
     [
      -94.145459,
      32.352346
     ],
     [
      -94.123194,
      32.383134
     ],
     [
      -94.116775,
      32.406577
     ],
     [
      -94.102143,
      32.430053
     ],
     [
      -94.085155,
      32.453528
     ],
     [
      -94.083548,
      32.471073
     ]
    ]
   }
  }
 ]
}